{
    "links": {
        "self": "http://www.neowsapp.com/rest/v1/neo/3483647?api_key=iIulBulltgU6a56xZRHN4H3l9WmuAYTsLGpBGhQ2"
    },
    "id": "3483647",
    "neo_reference_id": "3483647",
    "name": "(2009 YA)",
    "designation": "2009 YA",
    "nasa_jpl_url": "http://ssd.jpl.nasa.gov/sbdb.cgi?sstr=3483647",
    "absolute_magnitude_h": 24.8,
    "estimated_diameter": {
        "kilometers": {
            "estimated_diameter_min": 0.0291443905,
            "estimated_diameter_max": 0.0651688382
        },
        "meters": {
            "estimated_diameter_min": 29.1443904535,
            "estimated_diameter_max": 65.1688382168
        },
        "miles": {
            "estimated_diameter_min": 0.018109479,
            "estimated_diameter_max": 0.0404940262
        },
        "feet": {
            "estimated_diameter_min": 95.6180819754,
            "estimated_diameter_max": 213.8085311752
        }
    },
    "is_potentially_hazardous_asteroid": false,
    "close_approach_data": [
        {
            "close_approach_date": "2009-12-20",
            "close_approach_date_full": "2009-Dec-20 08:55",
            "epoch_date_close_approach": 1261299300000,
            "relative_velocity": {
                "kilometers_per_second": "18.2067898624",
                "kilometers_per_hour": "65544.4435044924",
                "miles_per_hour": "40726.7682431108"
            },
            "miss_distance": {
                "astronomical": "0.0873571163",
                "lunar": "33.9819182407",
                "kilometers": "13068438.527822281",
                "miles": "8120351.1555022378"
            },
            "orbiting_body": "Earth"
        }
    ],
    "orbital_data": {
        "orbit_id": "10",
        "orbit_determination_date": "2020-11-16 10:41:06",
        "first_observation_date": "2009-12-16",
        "last_observation_date": "2009-12-16",
        "data_arc_in_days": null,
        "observations_used": 10,
        "orbit_uncertainty": "9",
        "minimum_orbit_intersection": ".0873086",
        "jupiter_tisserand_invariant": "3.175",
        "epoch_osculation": "2455181.5",
        "eccentricity": ".5771864037216352",
        "semi_major_axis": "2.358786215568417",
        "inclination": "28.15746247902837",
        "ascending_node_longitude": "84.68642834406066",
        "orbital_period": "1323.217690923144",
        "perihelion_distance": ".9973268826563166",
        "perihelion_argument": "38.1608647817393",
        "aphelion_distance": "3.720245548480518",
        "perihelion_time": "2455214.175449841186",
        "mean_anomaly": "351.110183892251",
        "mean_motion": ".2720640771881199",
        "equinox": "J2000",
        "orbit_class": {
            "orbit_class_type": "APO",
            "orbit_class_description": "Near-Earth asteroid orbits which cross the Earth’s orbit similar to that of 1862 Apollo",
            "orbit_class_range": "a (semi-major axis) > 1.0 AU; q (perihelion) < 1.017 AU"
        }
    },
    "is_sentry_object": false
}